{"type": "FeatureCollection", "features": [ {"type": "Feature", "properties": {"norad_id": 42741, "name": "EUTELSAT 172B", "group": "eutelsat", "lat": -0.007687390734571352, "lon": -118.75633954113087, "alt_km": 35787.395614560344, "timestamp": "2025-12-19T22:41:52.050944+00:00", "meta": {"OBJECT_NAME": "EUTELSAT 172B", "OBJECT_ID": "2017-029B", "EPOCH": "2025-12-19T17:30:22.070304", "MEAN_MOTION": 1.00270724, "ECCENTRICITY": 3.06e-05, "INCLINATION": 0.0406, "RA_OF_ASC_NODE": 133.1043, "ARG_OF_PERICENTER": 326.2421, "MEAN_ANOMALY": 63.818, "EPHEMERIS_TYPE": 0, "CLASSIFICATION_TYPE": "U", "NORAD_CAT_ID": 42741, "ELEMENT_SET_NO": 999, "REV_AT_EPOCH": 3193, "BSTAR": 0, "MEAN_MOTION_DOT": 1.9e-07, "MEAN_MOTION_DDOT": 0}, "tle": {"line1": "1 42741U 17029B   25353.72942211  .00000019  00000+0  00000+0 0  9991", "line2": "2 42741   0.0406 133.1043 0000306 326.2421  63.8180  1.00270724 31939"}}, "geometry": {"type": "Point", "coordinates": [-118.75633954113087, -0.007687390734571352]}}, {"type": "Feature", "properties": {"norad_id": 44334, "name": "EUTELSAT 7C", "group": "eutelsat", "lat": -0.041631426449802875, "lon": 76.22743068373576, "alt_km": 35799.33264573177, "timestamp": "2025-12-19T22:41:52.050956+00:00", "meta": {"OBJECT_NAME": "EUTELSAT 7C", "OBJECT_ID": "2019-034B", "EPOCH": "2025-12-19T13:17:54.868128", "MEAN_MOTION": 1.00270496, "ECCENTRICITY": 0.0003054, "INCLINATION": 0.0733, "RA_OF_ASC_NODE": 179.964, "ARG_OF_PERICENTER": 72.3162, "MEAN_ANOMALY": 42.5872, "EPHEMERIS_TYPE": 0, "CLASSIFICATION_TYPE": "U", "NORAD_CAT_ID": 44334, "ELEMENT_SET_NO": 999, "REV_AT_EPOCH": 503, "BSTAR": 0, "MEAN_MOTION_DOT": 7.3e-07, "MEAN_MOTION_DDOT": 0}, "tle": {"line1": "1 44334U 19034B   25353.55410727  .00000073  00000+0  00000+0 0  9992", "line2": "2 44334   0.0733 179.9640 0003054  72.3162  42.5872  1.00270496  5037"}}, "geometry": {"type": "Point", "coordinates": [76.22743068373576, -0.041631426449802875]}}, {"type": "Feature", "properties": {"norad_id": 44624, "name": "EUTELSAT 5 WEST B", "group": "eutelsat", "lat": 0.09383050366867576, "lon": 64.2638557057609, "alt_km": 35797.74871841633, "timestamp": "2025-12-19T22:41:52.050968+00:00", "meta": {"OBJECT_NAME": "EUTELSAT 5 WEST B", "OBJECT_ID": "2019-067A", "EPOCH": "2025-12-19T18:22:30.045792", "MEAN_MOTION": 1.0027128, "ECCENTRICITY": 0.0002994, "INCLINATION": 0.0681, "RA_OF_ASC_NODE": 333.6647, "ARG_OF_PERICENTER": 295.2265, "MEAN_ANOMALY": 90.35, "EPHEMERIS_TYPE": 0, "CLASSIFICATION_TYPE": "U", "NORAD_CAT_ID": 44624, "ELEMENT_SET_NO": 999, "REV_AT_EPOCH": 2263, "BSTAR": 0, "MEAN_MOTION_DOT": -1.8e-07, "MEAN_MOTION_DDOT": 0}, "tle": {"line1": "1 44624U 19067A   25353.76562553 -.00000018  00000+0  00000+0 0  9998", "line2": "2 44624   0.0681 333.6647 0002994 295.2265  90.3500  1.00271280 22635"}}, "geometry": {"type": "Point", "coordinates": [64.2638557057609, 0.09383050366867576]}}, {"type": "Feature", "properties": {"norad_id": 45027, "name": "EUTELSAT KONNECT", "group": "eutelsat", "lat": 0.006534316386812196, "lon": 76.45488059388575, "alt_km": 35791.461906776676, "timestamp": "2025-12-19T22:41:52.050980+00:00", "meta": {"OBJECT_NAME": "EUTELSAT KONNECT", "OBJECT_ID": "2020-005B", "EPOCH": "2025-12-19T13:17:54.868128", "MEAN_MOTION": 1.00269378, "ECCENTRICITY": 0.0001288, "INCLINATION": 0.0703, "RA_OF_ASC_NODE": 95.1584, "ARG_OF_PERICENTER": 191.2571, "MEAN_ANOMALY": 8.6712, "EPHEMERIS_TYPE": 0, "CLASSIFICATION_TYPE": "U", "NORAD_CAT_ID": 45027, "ELEMENT_SET_NO": 999, "REV_AT_EPOCH": 2253, "BSTAR": 0, "MEAN_MOTION_DOT": 7.4e-07, "MEAN_MOTION_DDOT": 0}, "tle": {"line1": "1 45027U 20005B   25353.55410727  .00000074  00000+0  00000+0 0  9993", "line2": "2 45027   0.0703  95.1584 0001288 191.2571   8.6712  1.00269378 22539"}}, "geometry": {"type": "Point", "coordinates": [76.45488059388575, 0.006534316386812196]}}, {"type": "Feature", "properties": {"norad_id": 49056, "name": "EUTELSAT QUANTUM", "group": "eutelsat", "lat": 0.03975806087550764, "lon": 116.93610375373936, "alt_km": 35799.46712340208, "timestamp": "2025-12-19T22:41:52.050991+00:00", "meta": {"OBJECT_NAME": "EUTELSAT QUANTUM", "OBJECT_ID": "2021-069B", "EPOCH": "2025-12-19T15:12:13.917888", "MEAN_MOTION": 1.00271741, "ECCENTRICITY": 0.0003328, "INCLINATION": 0.0176, "RA_OF_ASC_NODE": 28.185, "ARG_OF_PERICENTER": 250.9076, "MEAN_ANOMALY": 85.1489, "EPHEMERIS_TYPE": 0, "CLASSIFICATION_TYPE": "U", "NORAD_CAT_ID": 49056, "ELEMENT_SET_NO": 999, "REV_AT_EPOCH": 1612, "BSTAR": 0, "MEAN_MOTION_DOT": 1.5e-06, "MEAN_MOTION_DDOT": 0}, "tle": {"line1": "1 49056U 21069B   25353.63349442  .00000150  00000+0  00000+0 0  9999", "line2": "2 49056   0.0176  28.1850 0003328 250.9076  85.1489  1.00271741 16127"}}, "geometry": {"type": "Point", "coordinates": [116.93610375373936, 0.03975806087550764]}}, {"type": "Feature", "properties": {"norad_id": 53765, "name": "EUTELSAT KONNECT VHTS", "group": "eutelsat", "lat": -0.0010235618192173314, "lon": 71.9694047310755, "alt_km": 35796.19808658865, "timestamp": "2025-12-19T22:41:52.051003+00:00", "meta": {"OBJECT_NAME": "EUTELSAT KONNECT VHTS", "OBJECT_ID": "2022-110A", "EPOCH": "2025-12-18T22:15:38.693952", "MEAN_MOTION": 1.00269719, "ECCENTRICITY": 0.00022903, "INCLINATION": 0.0647, "RA_OF_ASC_NODE": 100.6033, "ARG_OF_PERICENTER": 142.9466, "MEAN_ANOMALY": 180.8811, "EPHEMERIS_TYPE": 0, "CLASSIFICATION_TYPE": "U", "NORAD_CAT_ID": 53765, "ELEMENT_SET_NO": 999, "REV_AT_EPOCH": 501, "BSTAR": 0, "MEAN_MOTION_DOT": 4.2e-07, "MEAN_MOTION_DDOT": 0}, "tle": {"line1": "1 53765U 22110A   25352.92753118  .00000042  00000+0  00000+0 0  9999", "line2": "2 53765   0.0647 100.6033 0002290 142.9466 180.8811  1.00269719  5011"}}, "geometry": {"type": "Point", "coordinates": [71.9694047310755, -0.0010235618192173314]}}, {"type": "Feature", "properties": {"norad_id": 54048, "name": "EUTELSAT HOTBIRD 13F", "group": "eutelsat", "lat": 0.04805808051992071, "lon": 82.26249999559558, "alt_km": 35783.8544934985, "timestamp": "2025-12-19T22:41:52.051015+00:00", "meta": {"OBJECT_NAME": "EUTELSAT HOTBIRD 13F", "OBJECT_ID": "2022-134A", "EPOCH": "2025-12-19T18:27:37.056096", "MEAN_MOTION": 1.00272066, "ECCENTRICITY": 0.0002356, "INCLINATION": 0.0491, "RA_OF_ASC_NODE": 294.8043, "ARG_OF_PERICENTER": 69.7798, "MEAN_ANOMALY": 13.9259, "EPHEMERIS_TYPE": 0, "CLASSIFICATION_TYPE": "U", "NORAD_CAT_ID": 54048, "ELEMENT_SET_NO": 999, "REV_AT_EPOCH": 1157, "BSTAR": 0, "MEAN_MOTION_DOT": 1.12e-06, "MEAN_MOTION_DDOT": 0}, "tle": {"line1": "1 54048U 22134A   25353.76917889  .00000112  00000+0  00000+0 0  9998", "line2": "2 54048   0.0491 294.8043 0002356  69.7798  13.9259  1.00272066 11576"}}, "geometry": {"type": "Point", "coordinates": [82.26249999559558, 0.04805808051992071]}}, {"type": "Feature", "properties": {"norad_id": 54225, "name": "EUTELSAT HOTBIRD 13G", "group": "eutelsat", "lat": 0.00911547551138791, "lon": 82.21371912311865, "alt_km": 35786.131223626246, "timestamp": "2025-12-19T22:41:52.051027+00:00", "meta": {"OBJECT_NAME": "EUTELSAT HOTBIRD 13G", "OBJECT_ID": "2022-146A", "EPOCH": "2025-12-19T18:27:37.056096", "MEAN_MOTION": 1.0027241, "ECCENTRICITY": 0.0001789, "INCLINATION": 0.0515, "RA_OF_ASC_NODE": 225.8744, "ARG_OF_PERICENTER": 308.1908, "MEAN_ANOMALY": 204.4423, "EPHEMERIS_TYPE": 0, "CLASSIFICATION_TYPE": "U", "NORAD_CAT_ID": 54225, "ELEMENT_SET_NO": 999, "REV_AT_EPOCH": 566, "BSTAR": 0, "MEAN_MOTION_DOT": 1.12e-06, "MEAN_MOTION_DDOT": 0}, "tle": {"line1": "1 54225U 22146A   25353.76917889  .00000112  00000+0  00000+0 0  9998", "line2": "2 54225   0.0515 225.8744 0001789 308.1908 204.4423  1.00272410  5660"}}, "geometry": {"type": "Point", "coordinates": [82.21371912311865, 0.00911547551138791]}}, {"type": "Feature", "properties": {"norad_id": 54259, "name": "EUTELSAT 10B", "group": "eutelsat", "lat": 0.009073771425551587, "lon": 79.14780622406101, "alt_km": 35783.46430974528, "timestamp": "2025-12-19T22:41:52.051039+00:00", "meta": {"OBJECT_NAME": "EUTELSAT 10B", "OBJECT_ID": "2022-157A", "EPOCH": "2025-12-19T03:02:18.037824", "MEAN_MOTION": 1.00249724, "ECCENTRICITY": 0.000237, "INCLINATION": 0.0621, "RA_OF_ASC_NODE": 98.3483, "ARG_OF_PERICENTER": 10.4873, "MEAN_ANOMALY": 34.7012, "EPHEMERIS_TYPE": 0, "CLASSIFICATION_TYPE": "U", "NORAD_CAT_ID": 54259, "ELEMENT_SET_NO": 999, "REV_AT_EPOCH": 1122, "BSTAR": 0, "MEAN_MOTION_DOT": 9e-07, "MEAN_MOTION_DDOT": 0}, "tle": {"line1": "1 54259U 22157A   25353.12659766  .00000090  00000+0  00000+0 0  9999", "line2": "2 54259   0.0621  98.3483 0002370  10.4873  34.7012  1.00249724 11228"}}, "geometry": {"type": "Point", "coordinates": [79.14780622406101, 0.009073771425551587]}}, {"type": "Feature", "properties": {"norad_id": 59346, "name": "EUTELSAT 36D", "group": "eutelsat", "lat": 0.05090751230921087, "lon": 105.08844589646674, "alt_km": 35786.15912935728, "timestamp": "2025-12-19T22:41:52.051051+00:00", "meta": {"OBJECT_NAME": "EUTELSAT 36D", "OBJECT_ID": "2024-059A", "EPOCH": "2025-12-19T13:26:01.591296", "MEAN_MOTION": 1.00272156, "ECCENTRICITY": 4.61e-05, "INCLINATION": 0.0261, "RA_OF_ASC_NODE": 21.22, "ARG_OF_PERICENTER": 346.6706, "MEAN_ANOMALY": 317.8615, "EPHEMERIS_TYPE": 0, "CLASSIFICATION_TYPE": "U", "NORAD_CAT_ID": 59346, "ELEMENT_SET_NO": 999, "REV_AT_EPOCH": 634, "BSTAR": 0, "MEAN_MOTION_DOT": 0, "MEAN_MOTION_DDOT": 0}, "tle": {"line1": "1 59346U 24059A   25353.55974064  .00000000  00000+0  00000+0 0  9993", "line2": "2 59346   0.0261  21.2200 0000461 346.6706 317.8615  1.00272156  6346"}}, "geometry": {"type": "Point", "coordinates": [105.08844589646674, 0.05090751230921087]}}]}